CCSDS_OMM_VERS = 2.0
CREATION_DATE  = 
ORIGINATOR     = 

OBJECT_NAME    = STARLINK-35767
OBJECT_ID      = 2025-294AE
CENTER_NAME    = EARTH
REF_FRAME      = TEME
TIME_SYSTEM    = UTC
MEAN_ELEMENT_THEORY = SGP/SGP4

EPOCH          = 2026-01-02T06:37:09.707520
MEAN_MOTION    = 15.50608781
ECCENTRICITY   = .00011948
INCLINATION    = 43.0007
RA_OF_ASC_NODE = 58.2041
ARG_OF_PERICENTER = 260.1013
MEAN_ANOMALY   = 99.9712

EPHEMERIS_TYPE = 0
CLASSIFICATION_TYPE = U
NORAD_CAT_ID   = 67058
ELEMENT_SET_NO = 999
REV_AT_EPOCH   = 458
BSTAR          = .16195188E-2
MEAN_MOTION_DOT = .95941E-3
MEAN_MOTION_DDOT = 0

CCSDS_OMM_VERS = 2.0
CREATION_DATE  = 
ORIGINATOR     = 

OBJECT_NAME    = HULIANWANG DIGUI-119
OBJECT_ID      = 2025-295A
CENTER_NAME    = EARTH
REF_FRAME      = TEME
TIME_SYSTEM    = UTC
MEAN_ELEMENT_THEORY = SGP/SGP4

EPOCH          = 2026-01-02T06:02:28.653792
MEAN_MOTION    = 14.24625523
ECCENTRICITY   = .0013916
INCLINATION    = 50.0042
RA_OF_ASC_NODE = 285.7416
ARG_OF_PERICENTER = 319.0102
MEAN_ANOMALY   = 40.9764

EPHEMERIS_TYPE = 0
CLASSIFICATION_TYPE = U
NORAD_CAT_ID   = 67059
ELEMENT_SET_NO = 999
REV_AT_EPOCH   = 304
BSTAR          = .33410443E-3
MEAN_MOTION_DOT = .623E-5
MEAN_MOTION_DDOT = 0

CCSDS_OMM_VERS = 2.0
CREATION_DATE  = 
ORIGINATOR     = 

OBJECT_NAME    = HULIANWANG DIGUI-120
OBJECT_ID      = 2025-295B
CENTER_NAME    = EARTH
REF_FRAME      = TEME
TIME_SYSTEM    = UTC
MEAN_ELEMENT_THEORY = SGP/SGP4

EPOCH          = 2026-01-02T07:36:26.920800
MEAN_MOTION    = 14.24627426
ECCENTRICITY   = .00132858
INCLINATION    = 50.0051
RA_OF_ASC_NODE = 285.4208
ARG_OF_PERICENTER = 319.8718
MEAN_ANOMALY   = 40.1213

EPHEMERIS_TYPE = 0
CLASSIFICATION_TYPE = U
NORAD_CAT_ID   = 67060
ELEMENT_SET_NO = 999
REV_AT_EPOCH   = 305
BSTAR          = .34847812E-3
MEAN_MOTION_DOT = .656E-5
MEAN_MOTION_DDOT = 0

CCSDS_OMM_VERS = 2.0
CREATION_DATE  = 
ORIGINATOR     = 

OBJECT_NAME    = HULIANWANG DIGUI-121
OBJECT_ID      = 2025-295C
CENTER_NAME    = EARTH
REF_FRAME      = TEME
TIME_SYSTEM    = UTC
MEAN_ELEMENT_THEORY = SGP/SGP4

EPOCH          = 2026-01-02T07:38:58.268544
MEAN_MOTION    = 14.24644229
ECCENTRICITY   = .00131911
INCLINATION    = 50.0014
RA_OF_ASC_NODE = 285.4156
ARG_OF_PERICENTER = 319.1279
MEAN_ANOMALY   = 40.8644

EPHEMERIS_TYPE = 0
CLASSIFICATION_TYPE = U
NORAD_CAT_ID   = 67061
ELEMENT_SET_NO = 999
REV_AT_EPOCH   = 305
BSTAR          = .34550449E-3
MEAN_MOTION_DOT = .649E-5
MEAN_MOTION_DDOT = 0

CCSDS_OMM_VERS = 2.0
CREATION_DATE  = 
ORIGINATOR     = 

OBJECT_NAME    = HULIANWANG DIGUI-122
OBJECT_ID      = 2025-295D
CENTER_NAME    = EARTH
REF_FRAME      = TEME
TIME_SYSTEM    = UTC
MEAN_ELEMENT_THEORY = SGP/SGP4

EPOCH          = 2026-01-02T07:35:08.138688
MEAN_MOTION    = 14.24619457
ECCENTRICITY   = .00130325
INCLINATION    = 50.0045
RA_OF_ASC_NODE = 285.4138
ARG_OF_PERICENTER = 325.0523
MEAN_ANOMALY   = 34.9534

EPHEMERIS_TYPE = 0
CLASSIFICATION_TYPE = U
NORAD_CAT_ID   = 67062
ELEMENT_SET_NO = 999
REV_AT_EPOCH   = 305
BSTAR          = .34995384E-3
MEAN_MOTION_DOT = .659E-5
MEAN_MOTION_DDOT = 0

CCSDS_OMM_VERS = 2.0
CREATION_DATE  = 
ORIGINATOR     = 

OBJECT_NAME    = HULIANWANG DIGUI-123
OBJECT_ID      = 2025-295E
CENTER_NAME    = EARTH
REF_FRAME      = TEME
TIME_SYSTEM    = UTC
MEAN_ELEMENT_THEORY = SGP/SGP4

EPOCH          = 2026-01-02T07:33:39.768768
MEAN_MOTION    = 14.24625115
ECCENTRICITY   = .00119721
INCLINATION    = 50.0051
RA_OF_ASC_NODE = 285.4116
ARG_OF_PERICENTER = 324.5806
MEAN_ANOMALY   = 35.4312

EPHEMERIS_TYPE = 0
CLASSIFICATION_TYPE = U
NORAD_CAT_ID   = 67063
ELEMENT_SET_NO = 999
REV_AT_EPOCH   = 305
BSTAR          = .35243674E-3
MEAN_MOTION_DOT = .665E-5
MEAN_MOTION_DDOT = 0

CCSDS_OMM_VERS = 2.0
CREATION_DATE  = 
ORIGINATOR     = 

OBJECT_NAME    = HULIANWANG DIGUI-124
OBJECT_ID      = 2025-295F
CENTER_NAME    = EARTH
REF_FRAME      = TEME
TIME_SYSTEM    = UTC
MEAN_ELEMENT_THEORY = SGP/SGP4

EPOCH          = 2026-01-02T07:32:15.994464
MEAN_MOTION    = 14.24629045
ECCENTRICITY   = .00118412
INCLINATION    = 50.0010
RA_OF_ASC_NODE = 285.3880
ARG_OF_PERICENTER = 318.2649
MEAN_ANOMALY   = 41.7361

EPHEMERIS_TYPE = 0
CLASSIFICATION_TYPE = U
NORAD_CAT_ID   = 67064
ELEMENT_SET_NO = 999
REV_AT_EPOCH   = 305
BSTAR          = .34858904E-3
MEAN_MOTION_DOT = .656E-5
MEAN_MOTION_DDOT = 0

CCSDS_OMM_VERS = 2.0
CREATION_DATE  = 
ORIGINATOR     = 

OBJECT_NAME    = HULIANWANG DIGUI-125
OBJECT_ID      = 2025-295G
CENTER_NAME    = EARTH
REF_FRAME      = TEME
TIME_SYSTEM    = UTC
MEAN_ELEMENT_THEORY = SGP/SGP4

EPOCH          = 2026-01-02T07:30:42.666048
MEAN_MOTION    = 14.24636982
ECCENTRICITY   = .00119723
INCLINATION    = 50.0003
RA_OF_ASC_NODE = 285.3791
ARG_OF_PERICENTER = 326.2152
MEAN_ANOMALY   = 33.7997

EPHEMERIS_TYPE = 0
CLASSIFICATION_TYPE = U
NORAD_CAT_ID   = 67065
ELEMENT_SET_NO = 999
REV_AT_EPOCH   = 305
BSTAR          = .35210394E-3
MEAN_MOTION_DOT = .665E-5
MEAN_MOTION_DDOT = 0

CCSDS_OMM_VERS = 2.0
CREATION_DATE  = 
ORIGINATOR     = 

OBJECT_NAME    = HULIANWANG DIGUI-126
OBJECT_ID      = 2025-295H
CENTER_NAME    = EARTH
REF_FRAME      = TEME
TIME_SYSTEM    = UTC
MEAN_ELEMENT_THEORY = SGP/SGP4

EPOCH          = 2026-01-02T07:29:15.027936
MEAN_MOTION    = 14.24657291
ECCENTRICITY   = .00112599
INCLINATION    = 50.0006
RA_OF_ASC_NODE = 285.3737
ARG_OF_PERICENTER = 319.7656
MEAN_ANOMALY   = 40.2423

EPHEMERIS_TYPE = 0
CLASSIFICATION_TYPE = U
NORAD_CAT_ID   = 67066
ELEMENT_SET_NO = 999
REV_AT_EPOCH   = 305
BSTAR          = .34917178E-3
MEAN_MOTION_DOT = .658E-5
MEAN_MOTION_DDOT = 0

CCSDS_OMM_VERS = 2.0
CREATION_DATE  = 
ORIGINATOR     = 

OBJECT_NAME    = HULIANWANG DIGUI-127
OBJECT_ID      = 2025-295J
CENTER_NAME    = EARTH
REF_FRAME      = TEME
TIME_SYSTEM    = UTC
MEAN_ELEMENT_THEORY = SGP/SGP4

EPOCH          = 2026-01-02T05:46:47.207424
MEAN_MOTION    = 14.24672573
ECCENTRICITY   = .0010688
INCLINATION    = 50.0045
RA_OF_ASC_NODE = 285.6738
ARG_OF_PERICENTER = 326.0403
MEAN_ANOMALY   = 33.9825

EPHEMERIS_TYPE = 0
CLASSIFICATION_TYPE = U
NORAD_CAT_ID   = 67067
ELEMENT_SET_NO = 999
REV_AT_EPOCH   = 304
BSTAR          = -.51236894E-3
MEAN_MOTION_DOT = -.136E-4
MEAN_MOTION_DDOT = 0

CCSDS_OMM_VERS = 2.0
CREATION_DATE  = 
ORIGINATOR     = 

OBJECT_NAME    = CZ-12 R/B
OBJECT_ID      = 2025-295K
CENTER_NAME    = EARTH
REF_FRAME      = TEME
TIME_SYSTEM    = UTC
MEAN_ELEMENT_THEORY = SGP/SGP4

EPOCH          = 2026-01-02T03:38:30.269472
MEAN_MOTION    = 14.41134165
ECCENTRICITY   = .00568717
INCLINATION    = 49.9937
RA_OF_ASC_NODE = 283.8110
ARG_OF_PERICENTER = 209.0619
MEAN_ANOMALY   = 150.7132

EPHEMERIS_TYPE = 0
CLASSIFICATION_TYPE = U
NORAD_CAT_ID   = 67068
ELEMENT_SET_NO = 999
REV_AT_EPOCH   = 305
BSTAR          = .84042585E-4
MEAN_MOTION_DOT = .11E-5
MEAN_MOTION_DDOT = 0

CCSDS_OMM_VERS = 2.0
CREATION_DATE  = 
ORIGINATOR     = 

OBJECT_NAME    = XIWANG-5 02
OBJECT_ID      = 2025-296A
CENTER_NAME    = EARTH
REF_FRAME      = TEME
TIME_SYSTEM    = UTC
MEAN_ELEMENT_THEORY = SGP/SGP4

EPOCH          = 2026-01-02T06:28:53.765472
MEAN_MOTION    = 15.13009035
ECCENTRICITY   = .00028156
INCLINATION    = 41.3530
RA_OF_ASC_NODE = 344.8001
ARG_OF_PERICENTER = 316.7280
MEAN_ANOMALY   = 43.3319

EPHEMERIS_TYPE = 0
CLASSIFICATION_TYPE = U
NORAD_CAT_ID   = 67069
ELEMENT_SET_NO = 999
REV_AT_EPOCH   = 307
BSTAR          = .10846528E-2
MEAN_MOTION_DOT = .19372E-3
MEAN_MOTION_DDOT = 0

