STARLINK-35767          
1 67058U 25294AE  26002.27580680  .00095941  00000+0  16195-2 0  9995
2 67058  43.0007  58.2041 0001194 260.1013  99.9712 15.50608781  4585
HULIANWANG DIGUI-119    
1 67059U 25295A   26002.25172053  .00000623  00000+0  33410-3 0  9999
2 67059  50.0042 285.7416 0013916 319.0102  40.9764 14.24625523  3040
HULIANWANG DIGUI-120    
1 67060U 25295B   26002.31697825  .00000656  00000+0  34848-3 0  9999
2 67060  50.0051 285.4208 0013285 319.8718  40.1213 14.24627426  3054
HULIANWANG DIGUI-121    
1 67061U 25295C   26002.31872996  .00000649  00000+0  34550-3 0  9996
2 67061  50.0014 285.4156 0013191 319.1279  40.8644 14.24644229  3052
HULIANWANG DIGUI-122    
1 67062U 25295D   26002.31606642  .00000659  00000+0  34995-3 0  9994
2 67062  50.0045 285.4138 0013032 325.0523  34.9534 14.24619457  3056
HULIANWANG DIGUI-123    
1 67063U 25295E   26002.31504362  .00000665  00000+0  35244-3 0  9996
2 67063  50.0051 285.4116 0011972 324.5806  35.4312 14.24625115  3057
HULIANWANG DIGUI-124    
1 67064U 25295F   26002.31407401  .00000656  00000+0  34859-3 0  9994
2 67064  50.0010 285.3880 0011841 318.2649  41.7361 14.24629045  3050
HULIANWANG DIGUI-125    
1 67065U 25295G   26002.31299382  .00000665  00000+0  35210-3 0  9994
2 67065  50.0003 285.3791 0011972 326.2152  33.7997 14.24636982  3051
HULIANWANG DIGUI-126    
1 67066U 25295H   26002.31197949  .00000658  00000+0  34917-3 0  9996
2 67066  50.0006 285.3737 0011259 319.7656  40.2423 14.24657291  3052
HULIANWANG DIGUI-127    
1 67067U 25295J   26002.24082416 -.00001360  00000+0 -51237-3 0  9998
2 67067  50.0045 285.6738 0010688 326.0403  33.9825 14.24672573  3040
CZ-12 R/B               
1 67068U 25295K   26002.15173923  .00000110  00000+0  84043-4 0  9995
2 67068  49.9937 283.8110 0056871 209.0619 150.7132 14.41134165  3054
XIWANG-5 02             
1 67069U 25296A   26002.27006673  .00019372  00000+0  10847-2 0  9996
2 67069  41.3530 344.8001 0002815 316.7280  43.3319 15.13009035  3079
